SKYSAT-A                
1 39418U 13066C   26196.09964841  .00001524  00000+0  89294-4 0  9993
2 39418  97.3805 244.6073 0020508 213.8194 146.1731 15.13115170692700
SKYSAT-B                
1 40072U 14037D   26195.89618554  .00000603  00000+0  72253-4 0  9998
2 40072  98.3853 156.4444 0005536 173.5386 186.5901 14.88091619650087
SKYSAT-C1               
1 41601U 16040C   26196.02438898  .00005088  00000+0  14384-3 0  9992
2 41601  96.9548 226.2409 0000285 314.5309  45.5913 15.36746159562142
SKYSAT-C4               
1 41771U 16058B   26196.04533669  .00010582  00000+0  19415-3 0  9998
2 41771  96.9160 216.6654 0003463 118.3684 241.7918 15.49433812549785
SKYSAT-C5               
1 41772U 16058C   26196.08079694  .00004197  00000+0  13099-3 0  9993
2 41772  97.0454 235.4703 0002531 160.8664 199.2675 15.33718331548021
SKYSAT-C2               
1 41773U 16058D   26196.02683221  .00007118  00000+0  16515-3 0  9997
2 41773  97.0156 217.0836 0001519 354.7019   5.4213 15.42678065549348
SKYSAT-C3               
1 41774U 16058E   26196.04101934  .00014739  00000+0  23177-3 0  9995
2 41774  96.8991 225.8356 0002516 132.0460 228.1009 15.53702651550432
SKYSAT-C11              
1 42987U 17068A   26195.98506909  .00017721  00000+0  22641-3 0  9996
2 42987  97.4376 346.0599 0001121 159.0232 201.1070 15.59315544487575
SKYSAT-C10              
1 42988U 17068B   26195.93458874  .00006084  00000+0  18097-3 0  9999
2 42988  97.4538 333.0656 0001434 108.1466 251.9934 15.35113231486616
SKYSAT-C9               
1 42989U 17068C   26195.88519891  .00007445  00000+0  17532-3 0  9996
2 42989  97.4457 334.2191 0008692  45.8055 314.3904 15.42209004487027
SKYSAT-C8               
1 42990U 17068D   26195.92836706  .00005990  00000+0  16522-3 0  9991
2 42990  97.4553 332.9660 0001230 103.7859 256.3522 15.37487916486573
SKYSAT-C7               
1 42991U 17068E   26195.92284226  .00005868  00000+0  16211-3 0  9995
2 42991  97.4566 333.9519 0005758  22.1951 337.9541 15.37438463486635
SKYSAT-C6               
1 42992U 17068F   26195.93212557  .00005163  00000+0  15855-3 0  9996
2 42992  97.4603 333.8162 0005128  90.1759 270.0071 15.34166717486578
SKYSAT-C12              
1 43797U 18099AR  26196.12480363  .00010853  00000+0  19658-3 0  9996
2 43797  96.9250 218.2529 0005349  70.4803 289.7027 15.49785376426186
